COMMENT,ORIGINATOR,NORAD_CAT_ID,OBJECT_NAME,OBJECT_TYPE,CLASSIFICATION_TYPE,INTLDES,EPOCH,EPOCH_MICROSECONDS,MEAN_MOTION,ECCENTRICITY,INCLINATION,RA_OF_ASC_NODE,ARG_OF_PERICENTER,MEAN_ANOMALY,EPHEMERIS_TYPE,ELEMENT_SET_NO,REV_AT_EPOCH,BSTAR,MEAN_MOTION_DOT,MEAN_MOTION_DDOT,FILE,TLE_LINE0,TLE_LINE1,TLE_LINE2,OBJECT_ID,OBJECT_NUMBER,SEMIMAJOR_AXIS,PERIOD,APOGEE,PERIGEE,DECAYED
"GENERATED VIA SPACETRACK.ORG API","18 SPCS","48899","SPACEBEE-110","PAYLOAD","U","21059W","2022-01-20 14:18:18","888480","15.13424108","0.0008596","97.5374","151.6486","250.1753","109.8552","0","999","3156","0.00025336","0.00004463","0","3278533","0 SPACEBEE-110","1 48899U 21059W   22020.59605195  .00004463  00000-0  25336-3 0  9990","2 48899  97.5374 151.6486 0008596 250.1753 109.8552 15.13424108 31561","2021-059W","48899","6903.904","95.148","531.704","519.834","0"
"GENERATED VIA SPACETRACK.ORG API","18 SPCS","48899","SPACEBEE-110","PAYLOAD","U","21059W","2022-01-20 22:14:21","477408","15.13426857","0.0008625","97.5374","151.9756","248.8953","111.1357","0","999","3161","0.00023142","0.00004071","0","3278800","0 SPACEBEE-110","1 48899U 21059W   22020.92663747  .00004071  00000-0  23142-3 0  9992","2 48899  97.5374 151.9756 0008625 248.8953 111.1357 15.13426857 31611","2021-059W","48899","6903.896","95.148","531.715","519.806","0"
"GENERATED VIA SPACETRACK.ORG API","18 SPCS","48899","SPACEBEE-110","PAYLOAD","U","21059W","2022-01-21 07:45:36","532800","15.1343071","0.0008661","97.5374","152.3679","247.4654","112.5661","0","999","3167","0.00023837","0.00004196","0","3279324","0 SPACEBEE-110","1 48899U 21059W   22021.32333950  .00004196  00000-0  23837-3 0  9996","2 48899  97.5374 152.3679 0008661 247.4654 112.5661 15.13430710 31675","2021-059W","48899","6903.884","95.148","531.728","519.769","0"
"GENERATED VIA SPACETRACK.ORG API","18 SPCS","48899","SPACEBEE-110","PAYLOAD","U","21059W","2022-01-21 14:06:26","529984","15.134329","0.0008676","97.5374","152.6295","246.4473","113.5847","0","999","3171","0.00024222","0.00004265","0","3279513","0 SPACEBEE-110","1 48899U 21059W   22021.58780706  .00004265  00000-0  24222-3 0  9995","2 48899  97.5374 152.6295 0008676 246.4473 113.5847 15.13432900 31711","2021-059W","48899","6903.877","95.148","531.732","519.752","0"
"GENERATED VIA SPACETRACK.ORG API","18 SPCS","48899","SPACEBEE-110","PAYLOAD","U","21059W","2022-01-21 20:27:16","493472","15.13435624","0.0008697","97.5374","152.8911","245.4785","114.554","0","999","3175","0.00025422","0.0000448","0","3279606","0 SPACEBEE-110","1 48899U 21059W   22021.85227423  .00004480  00000-0  25422-3 0  9999","2 48899  97.5374 152.8911 0008697 245.4785 114.5540 15.13435624 31757","2021-059W","48899","6903.869","95.148","531.738","519.730","0"
"GENERATED VIA SPACETRACK.ORG API","18 SPCS","48899","SPACEBEE-110","PAYLOAD","U","21059W","2022-01-21 22:02:28","979808","15.13436199","0.0008701","97.5374","152.9564","245.2097","114.8229","0","999","3176","0.00025596","0.00004512","0","3280062","0 SPACEBEE-110","1 48899U 21059W   22021.91839097  .00004512  00000-0  25596-3 0  9990","2 48899  97.5374 152.9564 0008701 245.2097 114.8229 15.13436199 31768","2021-059W","48899","6903.867","95.148","531.739","519.725","0"
"GENERATED VIA SPACETRACK.ORG API","18 SPCS","48899","SPACEBEE-110","PAYLOAD","U","21059W","2022-01-22 18:40:11","51616","15.13445261","0.0008723","97.5373","153.8065","241.9384","118.0966","0","999","3189","0.00028495","0.00005032","0","3280283","0 SPACEBEE-110","1 48899U 21059W   22022.77790569  .00005032  00000-0  28495-3 0  9994","2 48899  97.5373 153.8065 0008723 241.9384 118.0966 15.13445261 31897","2021-059W","48899","6903.840","95.147","531.727","519.682","0"
"GENERATED VIA SPACETRACK.ORG API","18 SPCS","48899","SPACEBEE-110","PAYLOAD","U","21059W","2022-01-22 21:50:35","950848","15.13446014","0.0008726","97.5373","153.9373","241.4061","118.6293","0","999","3191","0.00027356","0.00004828","0","3280371","0 SPACEBEE-110","1 48899U 21059W   22022.91013832  .00004828  00000-0  27356-3 0  9998","2 48899  97.5373 153.9373 0008726 241.4061 118.6293 15.13446014 31919","2021-059W","48899","6903.837","95.147","531.727","519.678","0"
"GENERATED VIA SPACETRACK.ORG API","18 SPCS","48899","SPACEBEE-110","PAYLOAD","U","21059W","2022-01-23 07:21:50","556096","15.13451199","0.0008742","97.5373","154.3297","239.8505","120.186","0","999","3197","0.00030309","0.00005357","0","3280923","0 SPACEBEE-110","1 48899U 21059W   22023.30683514  .00005357  00000-0  30309-3 0  9992","2 48899  97.5373 154.3297 0008742 239.8505 120.1860 15.13451199 31975","2021-059W","48899","6903.822","95.147","531.722","519.651","0"
"GENERATED VIA SPACETRACK.ORG API","18 SPCS","48899","SPACEBEE-110","PAYLOAD","U","21059W","2022-01-23 21:38:42","328320","15.13455615","0.0008759","97.5373","154.9182","237.4313","122.6073","0","999","3206","0.00026346","0.00004648","0","3281238","0 SPACEBEE-110","1 48899U 21059W   22023.90187880  .00004648  00000-0  26346-3 0  9991","2 48899  97.5373 154.9182 0008759 237.4313 122.6073 15.13455615 32064","2021-059W","48899","6903.808","95.146","531.720","519.626","0"
"GENERATED VIA SPACETRACK.ORG API","18 SPCS","48899","SPACEBEE-110","PAYLOAD","U","21059W","2022-01-24 02:24:19","539360","15.13457443","0.0008762","97.5373","155.1144","236.633","123.4063","0","999","3209","0.00026025","0.00004591","0","3281400","0 SPACEBEE-110","1 48899U 21059W   22024.10022615  .00004591  00000-0  26025-3 0  9999","2 48899  97.5373 155.1144 0008762 236.6330 123.4063 15.13457443 32091","2021-059W","48899","6903.803","95.146","531.717","519.618","0"
"GENERATED VIA SPACETRACK.ORG API","18 SPCS","48899","SPACEBEE-110","PAYLOAD","U","21059W","2022-01-24 07:09:56","735712","15.13459097","0.0008781","97.5372","155.3106","235.9591","124.0807","0","999","3212","0.00025139","0.00004433","0","3281820","0 SPACEBEE-110","1 48899U 21059W   22024.29857333  .00004433  00000-0  25139-3 0  9992","2 48899  97.5372 155.3106 0008781 235.9591 124.0807 15.13459097 32126","2021-059W","48899","6903.798","95.146","531.725","519.600","0"
"GENERATED VIA SPACETRACK.ORG API","18 SPCS","48899","SPACEBEE-110","PAYLOAD","U","21059W","2022-01-24 21:26:48","169248","15.13464073","0.0008802","97.5372","155.8991","233.5274","126.5146","0","999","3221","0.00022178","0.00003903","0","3282614","0 SPACEBEE-110","1 48899U 21059W   22024.89361307  .00003903  00000-0  22178-3 0  9990","2 48899  97.5372 155.8991 0008802 233.5274 126.5146 15.13464073 32212","2021-059W","48899","6903.782","95.146","531.724","519.571","0"
"GENERATED VIA SPACETRACK.ORG API","18 SPCS","48899","SPACEBEE-110","PAYLOAD","U","21059W","2022-01-25 06:58:02","362368","15.13468532","0.0008818","97.5372","156.2915","232.0679","127.9755","0","999","3227","0.00023796","0.00004194","0","3283113","0 SPACEBEE-110","1 48899U 21059W   22025.29030512  .00004194  00000-0  23796-3 0  9996","2 48899  97.5372 156.2915 0008818 232.0679 127.9755 15.13468532 32274","2021-059W","48899","6903.769","95.146","531.722","519.546","0"
"GENERATED VIA SPACETRACK.ORG API","18 SPCS","48899","SPACEBEE-110","PAYLOAD","U","21059W","2022-01-25 14:54:04","83840","15.13473034","0.000883","97.5372","156.6185","230.7926","129.2522","0","999","3232","0.0002625","0.00004634","0","3283407","0 SPACEBEE-110","1 48899U 21059W   22025.62088060  .00004634  00000-0  26250-3 0  9991","2 48899  97.5372 156.6185 0008830 230.7926 129.2522 15.13473034 32327","2021-059W","48899","6903.755","95.145","531.716","519.524","0"
"GENERATED VIA SPACETRACK.ORG API","18 SPCS","48899","SPACEBEE-110","PAYLOAD","U","21059W","2022-01-25 21:14:53","439072","15.13476248","0.0008834","97.5371","156.8802","229.7253","130.3207","0","999","3236","0.00027562","0.00004869","0","3283711","0 SPACEBEE-110","1 48899U 21059W   22025.88534073  .00004869  00000-0  27562-3 0  9996","2 48899  97.5371 156.8802 0008834 229.7253 130.3207 15.13476248 32366","2021-059W","48899","6903.745","95.145","531.709","519.512","0"
"GENERATED VIA SPACETRACK.ORG API","18 SPCS","48899","SPACEBEE-110","PAYLOAD","U","21059W","2022-01-26 08:21:19","700352","15.13480236","0.000886","97.537","157.338","228.0251","132.0226","0","999","3243","0.00025961","0.00004583","0","3284199","0 SPACEBEE-110","1 48899U 21059W   22026.34814468  .00004583  00000-0  25961-3 0  9991","2 48899  97.5370 157.3380 0008860 228.0251 132.0226 15.13480236 32431","2021-059W","48899","6903.733","95.145","531.715","519.482","0"
"GENERATED VIA SPACETRACK.ORG API","18 SPCS","48899","SPACEBEE-110","PAYLOAD","U","21059W","2022-01-26 08:21:19","700352","15.13480236","0.000886","97.537","157.338","228.0251","132.0226","0","999","3243","0.00025961","0.00004583","0","3284266","0 SPACEBEE-110","1 48899U 21059W   22026.34814468  .00004583  00000-0  25961-3 0  9991","2 48899  97.5370 157.3380 0008860 228.0251 132.0226 15.13480236 32431","2021-059W","48899","6903.733","95.145","531.715","519.482","0"
"GENERATED VIA SPACETRACK.ORG API","18 SPCS","48899","SPACEBEE-110","PAYLOAD","U","21059W","2022-01-26 21:02:58","151616","15.13484715","0.0008884","97.5369","157.8612","225.9377","134.1123","0","999","3251","0.00023998","0.00004232","0","3284696","0 SPACEBEE-110","1 48899U 21059W   22026.87706194  .00004232  00000-0  23998-3 0  9994","2 48899  97.5369 157.8612 0008884 225.9377 134.1123 15.13484715 32517","2021-059W","48899","6903.720","95.145","531.718","519.451","0"
"GENERATED VIA SPACETRACK.ORG API","18 SPCS","48899","SPACEBEE-110","PAYLOAD","U","21059W","2022-01-27 14:30:13","265280","15.1349127","0.0008933","97.5368","158.5807","223.1984","136.8547","0","999","3262","0.00022525","0.00003969","0","3284946","0 SPACEBEE-110","1 48899U 21059W   22027.60432020  .00003969  00000-0  22525-3 0  9991","2 48899  97.5368 158.5807 0008933 223.1984 136.8547 15.13491270 32624","2021-059W","48899","6903.700","95.144","531.732","519.398","0"
